{"fetched_at":"2026-03-29T02:12:04Z","count":15717,"tles":[{"name":"COSMOS 2581","line1":"1 62902U 25026A   26087.69854645  .00001277  00000+0  11526-3 0  9998","line2":"2 62902  81.9974 156.6115 0009141 329.4705  30.5981 14.94796404 62191","category":"Other"}]}