{
  "norad_id": 62902,
  "name": "COSMOS 2581",
  "history": [
    {
      "epoch": "2026-03-28T16:45:54.413280",
      "apogee_km": 589.3679453874311,
      "perigee_km": 576.6415860113793,
      "latitude_deg": -49.915211239374116,
      "longitude_deg": 177.26045920001343,
      "semi_major_axis_km": 6961.141765699405,
      "eccentricity": 0.0009141,
      "inclination_deg": 81.9974,
      "raan_deg": 156.6115,
      "arg_perigee_deg": 329.4705,
      "mean_anomaly_deg": 30.5981,
      "mean_motion_rev_day": 14.94796404
    }
  ]
}